[{"OBJECT_NAME":"STARLINK-30069","OBJECT_ID":"2023-079M","EPOCH":"2026-03-08T11:34:15.947328","MEAN_MOTION":15.26726881,"ECCENTRICITY":4.69e-5,"INCLINATION":42.9986,"RA_OF_ASC_NODE":110.4464,"ARG_OF_PERICENTER":272.6695,"MEAN_ANOMALY":87.4103,"EPHEMERIS_TYPE":0,"CLASSIFICATION_TYPE":"U","NORAD_CAT_ID":56834,"ELEMENT_SET_NO":999,"REV_AT_EPOCH":15274,"BSTAR":-8.0472e-5,"MEAN_MOTION_DOT":-2.416e-5,"MEAN_MOTION_DDOT":0},{"OBJECT_NAME":"STARLINK-32692","OBJECT_ID":"2024-249P","EPOCH":"2026-03-09T23:10:40.068192","MEAN_MOTION":15.2760041,"ECCENTRICITY":0.00015752,"INCLINATION":43.0004,"RA_OF_ASC_NODE":320.4789,"ARG_OF_PERICENTER":273.8447,"MEAN_ANOMALY":86.2225,"EPHEMERIS_TYPE":0,"CLASSIFICATION_TYPE":"U","NORAD_CAT_ID":62422,"ELEMENT_SET_NO":999,"REV_AT_EPOCH":6776,"BSTAR":0.0013680124,"MEAN_MOTION_DOT":0.00037598,"MEAN_MOTION_DDOT":0}]
